<div class="post-text" itemprop="text">
<p>What does 10f mean in the line <code>&gt;&gt;&gt; print('%.10f' % yh.earth_distance)</code>?</p>
<p>Here is an example where it is used:</p>
<pre><code>&gt;&gt;&gt; line = "C/2002 Y1 (Juels-Holvorcem),e,103.7816,166.2194,128.8232,242.5695,0.0002609,0.99705756,0.0000,04/13.2508/2003,2000,g  6.5,4.0"
&gt;&gt;&gt; yh = ephem.readdb(line)
&gt;&gt;&gt; yh.compute('2007/10/1')
&gt;&gt;&gt; print('%.10f' % yh.earth_distance)
14.8046731949
&gt;&gt;&gt; print(yh.mag)
23.96
</code></pre>
</div>
<div class="post-text" itemprop="text">
<p>This has nothing to do with ephem, this is formatting for python strings. In this particular case — "use 10 digits after floating(decimal) point"</p>
</div>
<span class="comment-copy"><a href="https://www.learnpython.org/en/String_Formatting" rel="nofollow noreferrer">learnpython.org/en/String_Formatting</a></span>
<span class="comment-copy">10 digits after the decimal.</span>
<span class="comment-copy"><a href="https://docs.python.org/3/library/stdtypes.html#printf-style-string-formatting" rel="nofollow noreferrer">docs.python.org/3/library/…</a></span>
<span class="comment-copy">Possible duplicate of <a href="https://stackoverflow.com/questions/8885663/how-to-format-a-floating-number-to-fixed-width-in-python">How to format a floating number to fixed width in Python</a></span>
